{
  "type": "FeatureCollection",
  "features": [
    {
      "type": "Feature",
      "properties": {
        "norad_id": 58647,
        "name": "TIANMU-1 13",
        "group": "weather",
        "lat": -67.34569194998322,
        "lon": 176.30441533283957,
        "alt_km": 495.09032233272774,
        "timestamp": "2025-12-20T20:38:44.088799+00:00",
        "meta_object_name": "TIANMU-1 13",
        "meta_object_id": "2023-205C",
        "meta_epoch": "2025-12-20T13:15:29.127744",
        "meta_mean_motion": 15.24615333,
        "meta_eccentricity": 0.00062844,
        "meta_inclination": 97.3611,
        "meta_ra_of_asc_node": 14.0456,
        "meta_arg_of_pericenter": 232.1844,
        "meta_mean_anomaly": 127.8826,
        "meta_ephemeris_type": 0,
        "meta_classification_type": "U",
        "meta_norad_cat_id": 58647,
        "meta_element_set_no": 999,
        "meta_rev_at_epoch": 11026,
        "meta_bstar": 0.00018384084,
        "meta_mean_motion_dot": 4.466e-05,
        "meta_mean_motion_ddot": 0,
        "tle_line1": "1 58647U 23205C   25354.55242046  .00004466  00000+0  18384-3 0  9995",
        "tle_line2": "2 58647  97.3611  14.0456 0006284 232.1844 127.8826 15.24615333110260"
      },
      "geometry": {
        "type": "Point",
        "coordinates": [
          176.30441533283957,
          -67.34569194998322
        ]
      }
    },
    {
      "type": "Feature",
      "properties": {
        "norad_id": 58648,
        "name": "TIANMU-1 14",
        "group": "weather",
        "lat": -20.859333351033055,
        "lon": 16.51027335331529,
        "alt_km": 498.32200586421095,
        "timestamp": "2025-12-20T20:38:44.088809+00:00",
        "meta_object_name": "TIANMU-1 14",
        "meta_object_id": "2023-205D",
        "meta_epoch": "2025-12-20T14:26:12.936768",
        "meta_mean_motion": 15.24598812,
        "meta_eccentricity": 0.00070269,
        "meta_inclination": 97.3542,
        "meta_ra_of_asc_node": 13.4354,
        "meta_arg_of_pericenter": 238.2178,
        "meta_mean_anomaly": 121.8376,
        "meta_ephemeris_type": 0,
        "meta_classification_type": "U",
        "meta_norad_cat_id": 58648,
        "meta_element_set_no": 999,
        "meta_rev_at_epoch": 11027,
        "meta_bstar": 0.0001793833,
        "meta_mean_motion_dot": 4.354e-05,
        "meta_mean_motion_ddot": 0,
        "tle_line1": "1 58648U 23205D   25354.60153862  .00004354  00000+0  17938-3 0  9999",
        "tle_line2": "2 58648  97.3542  13.4354 0007026 238.2178 121.8376 15.24598812110273"
      },
      "geometry": {
        "type": "Point",
        "coordinates": [
          16.51027335331529,
          -20.859333351033055
        ]
      }
    },
    {
      "type": "Feature",
      "properties": {
        "norad_id": 58660,
        "name": "TIANMU-1 19",
        "group": "weather",
        "lat": -27.6318691112022,
        "lon": 109.80451647974046,
        "alt_km": 489.0009503626088,
        "timestamp": "2025-12-20T20:38:44.088820+00:00",
        "meta_object_name": "TIANMU-1 19",
        "meta_object_id": "2023-208A",
        "meta_epoch": "2025-12-20T12:54:32.025888",
        "meta_mean_motion": 15.27981628,
        "meta_eccentricity": 0.00044763,
        "meta_inclination": 97.4396,
        "meta_ra_of_asc_node": 105.5603,
        "meta_arg_of_pericenter": 218.5905,
        "meta_mean_anomaly": 141.5015,
        "meta_ephemeris_type": 0,
        "meta_classification_type": "U",
        "meta_norad_cat_id": 58660,
        "meta_element_set_no": 999,
        "meta_rev_at_epoch": 11001,
        "meta_bstar": 0.00024723921,
        "meta_mean_motion_dot": 6.676e-05,
        "meta_mean_motion_ddot": 0,
        "tle_line1": "1 58660U 23208A   25354.53787067  .00006676  00000+0  24724-3 0  9998",
        "tle_line2": "2 58660  97.4396 105.5603 0004476 218.5905 141.5015 15.27981628110015"
      },
      "geometry": {
        "type": "Point",
        "coordinates": [
          109.80451647974046,
          -27.6318691112022
        ]
      }
    },
    {
      "type": "Feature",
      "properties": {
        "norad_id": 58661,
        "name": "TIANMU-1 20",
        "group": "weather",
        "lat": 78.4253313048846,
        "lon": 66.73486499625521,
        "alt_km": 474.90421561409676,
        "timestamp": "2025-12-20T20:38:44.088830+00:00",
        "meta_object_name": "TIANMU-1 20",
        "meta_object_id": "2023-208B",
        "meta_epoch": "2025-12-20T14:00:35.481600",
        "meta_mean_motion": 15.2917203,
        "meta_eccentricity": 0.00065683,
        "meta_inclination": 97.4332,
        "meta_ra_of_asc_node": 106.0614,
        "meta_arg_of_pericenter": 232.9584,
        "meta_mean_anomaly": 127.1055,
        "meta_ephemeris_type": 0,
        "meta_classification_type": "U",
        "meta_norad_cat_id": 58661,
        "meta_element_set_no": 999,
        "meta_rev_at_epoch": 11009,
        "meta_bstar": 0.00022569873,
        "meta_mean_motion_dot": 6.317e-05,
        "meta_mean_motion_ddot": 0,
        "tle_line1": "1 58661U 23208B   25354.58374400  .00006317  00000+0  22570-3 0  9996",
        "tle_line2": "2 58661  97.4332 106.0614 0006568 232.9584 127.1055 15.29172030110094"
      },
      "geometry": {
        "type": "Point",
        "coordinates": [
          66.73486499625521,
          78.4253313048846
        ]
      }
    },
    {
      "type": "Feature",
      "properties": {
        "norad_id": 58662,
        "name": "TIANMU-1 21",
        "group": "weather",
        "lat": 20.23702708027518,
        "lon": -68.95682533021879,
        "alt_km": 469.15515361992584,
        "timestamp": "2025-12-20T20:38:44.088839+00:00",
        "meta_object_name": "TIANMU-1 21",
        "meta_object_id": "2023-208C",
        "meta_epoch": "2025-12-20T13:40:46.252128",
        "meta_mean_motion": 15.31706292,
        "meta_eccentricity": 0.00062221,
        "meta_inclination": 97.4381,
        "meta_ra_of_asc_node": 107.9912,
        "meta_arg_of_pericenter": 227.2194,
        "meta_mean_anomaly": 132.8525,
        "meta_ephemeris_type": 0,
        "meta_classification_type": "U",
        "meta_norad_cat_id": 58662,
        "meta_element_set_no": 999,
        "meta_rev_at_epoch": 11019,
        "meta_bstar": 0.00024075055,
        "meta_mean_motion_dot": 7.296e-05,
        "meta_mean_motion_ddot": 0,
        "tle_line1": "1 58662U 23208C   25354.56997977  .00007296  00000+0  24075-3 0  9994",
        "tle_line2": "2 58662  97.4381 107.9912 0006222 227.2194 132.8525 15.31706292110193"
      },
      "geometry": {
        "type": "Point",
        "coordinates": [
          -68.95682533021879,
          20.23702708027518
        ]
      }
    },
    {
      "type": "Feature",
      "properties": {
        "norad_id": 58663,
        "name": "TIANMU-1 22",
        "group": "weather",
        "lat": -33.68919359085673,
        "lon": 110.93439867453839,
        "alt_km": 488.5912019966263,
        "timestamp": "2025-12-20T20:38:44.088850+00:00",
        "meta_object_name": "TIANMU-1 22",
        "meta_object_id": "2023-208D",
        "meta_epoch": "2025-12-20T14:30:22.694112",
        "meta_mean_motion": 15.27727007,
        "meta_eccentricity": 0.00027493,
        "meta_inclination": 97.4389,
        "meta_ra_of_asc_node": 105.6822,
        "meta_arg_of_pericenter": 245.3076,
        "meta_mean_anomaly": 114.7877,
        "meta_ephemeris_type": 0,
        "meta_classification_type": "U",
        "meta_norad_cat_id": 58663,
        "meta_element_set_no": 999,
        "meta_rev_at_epoch": 11003,
        "meta_bstar": 0.00022505685,
        "meta_mean_motion_dot": 6.022e-05,
        "meta_mean_motion_ddot": 0,
        "tle_line1": "1 58663U 23208D   25354.60442933  .00006022  00000+0  22506-3 0  9990",
        "tle_line2": "2 58663  97.4389 105.6822 0002749 245.3076 114.7877 15.27727007110031"
      },
      "geometry": {
        "type": "Point",
        "coordinates": [
          110.93439867453839,
          -33.68919359085673
        ]
      }
    },
    {
      "type": "Feature",
      "properties": {
        "norad_id": 58700,
        "name": "TIANMU-1 15",
        "group": "weather",
        "lat": 1.9423114547064322,
        "lon": 176.04433513836176,
        "alt_km": 496.24977844608384,
        "timestamp": "2025-12-20T20:38:44.088860+00:00",
        "meta_object_name": "TIANMU-1 15",
        "meta_object_id": "2024-004A",
        "meta_epoch": "2025-12-20T14:20:09.015648",
        "meta_mean_motion": 15.24502073,
        "meta_eccentricity": 0.00059456,
        "meta_inclination": 97.4621,
        "meta_ra_of_asc_node": 176.0372,
        "meta_arg_of_pericenter": 256.7869,
        "meta_mean_anomaly": 103.2705,
        "meta_ephemeris_type": 0,
        "meta_classification_type": "U",
        "meta_norad_cat_id": 58700,
        "meta_element_set_no": 999,
        "meta_rev_at_epoch": 10854,
        "meta_bstar": 0.00019714118,
        "meta_mean_motion_dot": 4.776e-05,
        "meta_mean_motion_ddot": 0,
        "tle_line1": "1 58700U 24004A   25354.59732657  .00004776  00000+0  19714-3 0  9991",
        "tle_line2": "2 58700  97.4621 176.0372 0005945 256.7869 103.2705 15.24502073108548"
      },
      "geometry": {
        "type": "Point",
        "coordinates": [
          176.04433513836176,
          1.9423114547064322
        ]
      }
    }
  ]
}